IDEFIX & ARIANE 42P R/B 
1 27422U 02021B   12254.22472739  .00000120  00000-0  64200-4 0    48
2 27422  98.3959 313.2113 0012413 353.0281   7.0727 14.28775648538033
AQUA                    
1 27424U 02022A   12252.11678272  .00000986  00000-0  22872-3 0  4162
2 27424  98.1997 191.3870 0001638  68.8577 291.2786 14.57134484550446
CZ-4B R/B               
1 27432U 02024C   12253.98582879  .00000138  00000-0  94893-4 0  5372
2 27432  98.7309 215.2288 0050049 296.8026  62.8010 14.13742039532747
JB-3 2 (ZY 2B)          
1 27550U 02049A   12254.19444444  .00014860  00000-0  42078-3 0  2099
2 27550  97.0800 244.4500 0004752 293.2344 253.4541 15.36361210549818
MIDORI II (ADEOS-II)    
1 27597U 02056A   12253.53057812  .00000241  00000-0  11697-3 0  8192
2 27597  98.3220 284.4034 0001951  61.0216 299.1163 14.26453642507047
H-2A R/B                
1 27601U 02056E   12253.24064604  .00000262  00000-0  11227-3 0  6070
2 27601  98.5247 338.5021 0073843  45.9267 314.7964 14.31030974508619
CZ-4B R/B               
1 28059U 03049C   12253.06520563  .00000405  00000-0  11139-3 0  5689
2 28059  98.6802  58.0414 0051076 143.2827 217.1884 14.51763622470837
CZ-2C R/B               
1 28222U 04012C   12253.87800205  .00004252  00000-0  34034-3 0  7309
2 28222  97.3530 251.5814 0052016  26.7745 333.6146 14.99605736458717
SL-16 R/B               
1 28353U 04021B   12253.46246450  .00000028  00000-0  39687-4 0  2970
2 28353  70.9959 130.6148 0006413 307.8948  52.1602 14.14010019425949
CZ-4B R/B               
1 28471U 04044B   12252.94861870  .00087361  00000-0  56324-3 0  4307
2 28471  96.9731 247.6705 0039800 344.5011  15.5032 15.74744315440205
CZ-2C R/B               
1 28480U 04046B   12251.55034155  .00000104  00000-0  55583-4 0  8955
2 28480  98.0579  88.5394 0142503 339.1680  76.0976 14.25031013405851
ARIANE 5 R/B            
1 28499U 04049H   12253.54483010  .00000959  00000-0  13113-3 0  4593
2 28499  98.2916 280.6174 0096768  58.2185 302.8406 14.77883032416559
CZ-2D R/B               
1 28738U 05024B   12253.53705755  .00002814  00000-0  21157-3 0  2974
2 28738  97.7096 282.4028 0014275 183.5116 176.6000 15.03315981393380
SUZAKU (ASTRO-EII)      
1 28773U 05025A   12252.67476454  .00004617  00000-0  32125-3 0  8403
2 28773  31.3819 346.1180 0006376 269.9630  90.0282 15.03964237393662
ALOS (DAICHI)           
1 28931U 06002A   12253.46963287  .00000933  00000-0  20376-3 0  3843
2 28931  98.0683 320.4072 0002133  69.7822 290.3603 14.60026684353078
H-2A R/B                
1 28932U 06002B   12254.08575043  .00003198  00000-0  34904-3 0  1534
2 28932  98.3424  72.6598 0100788 223.1830 136.1448 14.85056983358761
AKARI (ASTRO-F)         
1 28939U 06005A   12252.94076444  .00007496  00000-0  41765-3 0  9893
2 28939  98.2753 282.9151 0175103 355.0418   4.8928 15.01748575349233
RESURS-DK 1             
1 29228U 06021A   12254.17156194  .00001160  00000-0  10187-3 0  9998
2 29228  69.9352 199.7817 0003753 165.8353 321.4013 14.99552563346848
GENESIS 1               
1 29252U 06029A   12254.19460573  .00002810  00000-0  19846-3 0  7031
2 29252  64.5060 172.1291 0042688 229.5350 130.2044 15.06424781338567
CZ-4B R/B               
1 29507U 06046C   12254.05408192  .00002302  00000-0  21603-3 0  9477
2 29507  97.7074 245.6623 0042722 339.6373  20.3139 14.94287775320443
SL-8 R/B                
1 29659U 06060B   12253.85307788  .00018146  00000-0  40965-3 0  7144
2 29659  98.1150 123.0308 0028332  66.3191 294.1001 15.42850936319900
ATLAS 5 CENTAUR R/B     
1 30778U 07006G   12252.50747977  .00014188  00000-0  54013-3 0  5057
2 30778  35.6973 279.9291 0023863 139.4413 220.8097 15.25713859305479
CZ-2C R/B               
1 31114U 07010B   12252.90884826  .00000018  00000-0  27734-4 0  4929
2 31114  98.2796 223.5374 0059153 234.6472 124.9201 14.18789848280423
COSMO-SKYMED 1          
1 31598U 07023A   12254.14967382  .00000666  00000-0  90131-4 0  8436
2 31598  97.8706  77.9068 0001364  85.8779 274.2580 14.82174791284556
GENESIS 2               
1 31789U 07028A   12252.96867122  .00004235  00000-0  29180-3 0  4800
2 31789  64.4991 209.1553 0056272 278.9348  80.5400 15.05988532285559
COSMOS 2428             
1 31792U 07029A   12254.17165304  .00000137  00000-0  10000-3 0  7714
2 31792  70.9881 100.9074 0009680  14.3899 121.9408 14.12436063268242
SL-16 R/B               
1 31793U 07029B   12254.11530844 -.00000103  00000-0 -29046-4 0  5134
2 31793  70.9723  85.7394 0002405 264.4233  95.6614 14.14197718268554
KORONAS-FOTON           
1 33504U 09003A   12254.12399513  .00001604  00000-0  10328-3 0  9756
2 33504  82.4782 152.9501 0015492  21.1566  93.9490 15.07609893198441
TIANGONG 1              
1 37820U 11053A   12254.06531006  .00041241  00000-0  32999-3 0  1084
2 37820  42.7828 255.8173 0009460 300.4700 161.6251 15.70285739 54577
